GLOBALSTAR M067         
1 32263U 07048A   24205.65459748 -.00000027  00000+0  52065-3 0  9996
2 32263  51.9727 277.2326 0000610  33.7023 122.7467 12.40650276768703
GLOBALSTAR M070         
1 32264U 07048B   24205.94609788 -.00000065  00000+0  21886-3 0  9999
2 32264  51.9760  48.4423 0001138  83.0277  57.8921 12.62296333772210
GLOBALSTAR M066         
1 32265U 07048C   24205.61728431 -.00000084  00000+0  11159-3 0  9994
2 32265  51.9673 271.5490 0001784 186.7630 337.6332 12.58438371775378
GLOBALSTAR M068         
1 32266U 07048D   24206.23737992 -.00000091  00000+0  73159-4 0  9993
2 32266  51.9858 221.9357 0001008 139.9100 300.4977 12.62794861776419
GLOBALSTAR M076         
1 37190U 10054C   24205.86601395 -.00000071  00000+0  18108-3 0  9990
2 37190  52.0036  58.7636 0000952  48.4736  68.6999 12.62253978635311
GLOBALSTAR M077         
1 37191U 10054D   24205.94250233 -.00000101  00000+0  15099-4 0  9992
2 37191  52.0088  15.2915 0000897  91.4153  73.8782 12.62261450635699
